MTI                     
1 26102U 00014A   22085.54788187  .00119249  00000+0  62978-3 0  9991
2 26102  97.4560  14.4810 0003491  37.9525 322.1987 15.80281277225529
TITAN 4B R/B            
1 26474U 00047B   22085.50816458  .00001026  00000+0  97783-4 0  9994
2 26474  67.9920  94.0602 0058134 210.5064 149.2693 14.96541803176030
ENVISAT                 
1 27386U 02009A   22085.59977859  .00000168  00000+0  68912-4 0  9997
2 27386  98.1774  70.6219 0001354  90.2534  23.3453 14.38091678 51558
IDEFIX & ARIANE 42P R/B 
1 27422U 02021B   22085.56774216  .00000143  00000+0  72574-4 0  9993
2 27422  98.4412  34.0926 0013165 118.0982 242.1533 14.29375538 37610
AQUA                    
1 27424U 02022A   22085.42005917  .00000493  00000+0  11930-3 0  9992
2 27424  98.2402  28.1398 0001749  96.6226  13.1311 14.57178375 58099
CZ-4B R/B               
1 27432U 02024C   22085.61541757  .00000008  00000+0  27645-4 0  9994
2 27432  99.0704 109.5186 0050953 149.6930 318.1756 14.14129006 25111
MIDORI II (ADEOS-II)    
1 27597U 02056A   22085.56099063  .00000154  00000+0  80291-4 0  9991
2 27597  98.5990  30.7156 0000169 115.3929 244.7269 14.27571718  4146
H-2A R/B                
1 27601U 02056E   22085.62813984  .00000057  00000+0  34929-4 0  9999
2 27601  98.1800  96.9777 0072768 147.5834 321.0539 14.32040824  7324
CZ-4B R/B               
1 28059U 03049C   22085.51855745  .00000226  00000+0  66156-4 0  9994
2 28059  98.5143  21.0520 0049333 321.9270  37.8442 14.52733268976777
CZ-2C R/B               
1 28222U 04012C   22085.56371007  .00004292  00000+0  24909-3 0  9992
2 28222  97.7652  64.9507 0044975 338.4962  87.9335 15.11852123983700
SL-16 R/B               
1 28353U 04021B   22085.53023044 -.00000276  00000+0 -11946-3 0  9996
2 28353  71.0035  22.2021 0002780  57.4218 302.7172 14.14258596918625
CZ-4B R/B               
1 28415U 04035C   22085.56976704  .00001622  00000+0  10782-3 0  9994
2 28415  97.5279 127.7949 0049277 304.3564  55.3007 15.07652009961106
CZ-2C R/B               
1 28480U 04046B   22085.54537885  .00000055  00000+0  35109-4 0  9999
2 28480  98.0610  79.8610 0143002 107.7379   2.6586 14.25797207902623
ARIANE 5 R/B            
1 28499U 04049H   22085.33359931  .00000372  00000+0  53038-4 0  9996
2 28499  98.0857 201.3913 0091316 343.8003  77.1414 14.80288661931787
CZ-2D R/B               
1 28738U 05024B   22085.56891694  .00003137  00000+0  17995-3 0  9991
2 28738  97.3554  96.5708 0013380 103.8081 256.4640 15.13190069919218
SUZAKU (ASTRO-EII)      
1 28773U 05025A   22085.53475738  .00005579  00000+0  24822-3 0  9994
2 28773  31.3800 123.6404 0004589 244.1592 115.8583 15.19990406922397
ALOS (DAICHI)           
1 28931U 06002A   22085.49123034  .00000484  00000+0  10314-3 0  9991
2 28931  97.9265  53.4987 0000898 112.3567 247.7729 14.63042304862291
H-2A R/B                
1 28932U 06002B   22085.60580336  .00002009  00000+0  18525-3 0  9994
2 28932  98.3026 123.5446 0087247   4.5509 160.1939 14.93112710877673
AKARI (ASTRO-F)         
1 28939U 06005A   22085.44261846  .00017136  00000+0  36376-3 0  9999
2 28939  98.2053 148.2123 0076888 210.3373 149.3411 15.41940134880277
RESURS-DK 1             
1 29228U 06021A   22085.43388677  .00000951  00000+0  77773-4 0  9994
2 29228  69.9373 340.5581 0006105 220.0069 140.0643 15.03000612869907
GENESIS 1               
1 29252U 06029A   22085.44782553  .00003519  00000+0  16554-3 0  9993
2 29252  64.5241 343.5246 0059724 274.8270  84.6036 15.19859040866355
CZ-4B R/B               
1 29507U 06046C   22085.57690527  .00001487  00000+0  11724-3 0  9994
2 29507  97.7297 115.9930 0049308 144.2834 216.1706 15.01387618842438
CZ-2C R/B               
1 31114U 07010B   22085.51582839  .00000126  00000+0  77173-4 0  9993
2 31114  98.2354 264.4077 0059755 178.8131 181.3199 14.19405915774798
COSMO-SKYMED 1          
1 31598U 07023A   22085.43135526  .00000401  00000+0  56905-4 0  9997
2 31598  97.8868 270.2861 0001409  96.9273 263.2097 14.82150622800660
GENESIS 2               
1 31789U 07028A   22085.52718666  .00004175  00000+0  20579-3 0  9995
2 31789  64.4985  26.2352 0038910 328.4428  31.4361 15.18788090813308
COSMOS 2428             
1 31792U 07029A   22085.49360734  .00000356  00000+0  21850-3 0  9995
2 31792  70.9399 353.7965 0008821 195.6485 164.4365 14.12495028760217
SL-16 R/B               
1 31793U 07029B   22085.45693448  .00000302  00000+0  18232-3 0  9994
2 31793  70.9769 327.2203 0001909 276.7886 256.3775 14.14463955761129
KORONAS-FOTON           
1 33504U 09003A   22085.61294793  .00002567  00000+0  12905-3 0  9994
2 33504  82.4392 298.5191 0018064 194.0537 166.0196 15.16677940725401
H-2A R/B                
1 38341U 12025E   22085.57507047  .00000782  00000+0  98019-4 0  9998
2 38341  98.5155 295.2975 0054199 314.1420  45.5342 14.84503519533358
CUSAT 2 & FALCON 9 R/B  
1 39271U 13055G   22085.58187064  .00017834  00000+0  39790-3 0  9995
2 39271  80.9582 286.1125 0544100  11.1094 350.1556 14.59011436444675
CZ-2C R/B               
1 39364U 13059B   22085.39619867  .00006048  00000+0  20603-3 0  9990
2 39364  97.1717 141.5727 0042621 268.6394  90.9964 15.29871346467504
SL-4 R/B                
1 39679U 14021B   22085.42577155  .00003722  00000+0  18990-3 0  9998
2 39679  51.6154 342.4627 0167296  29.9367 331.1044 15.08021639436580
ALOS-2                  
1 39766U 14029A   22085.55464534 -.00000326  00000+0 -36746-4 0  9992
2 39766  97.9190 183.8759 0001705  92.3124 267.8291 14.79469045423376
CZ-2C R/B               
1 40306U 14071B   22085.44947308  .00027764  00000+0  40301-3 0  9998
2 40306  97.4117  55.5485 0009831 333.5966  26.4786 15.55735801413968
SL-27 R/B               
1 40354U 14084B   22085.57245409  .00004891  00000+0  11056-3 0  9993
2 40354  74.7369 127.5214 0036044 346.4000  13.6238 15.42713322407813
YAOGAN 29               
1 41038U 15069A   22085.50259493  .00000213  00000+0  34743-4 0  9991
2 41038  98.0559  85.3212 0001209  47.3578 312.7739 14.80601573342018
ASTRO-H (HITOMI)        
1 41337U 16012A   22085.57839556  .00001129  00000+0  83696-4 0  9991
2 41337  31.0043 225.6771 0012267 347.5704  12.4628 14.99157584334678
HXMT (HUIYAN)           
1 42758U 17034A   22085.48458436  .00001617  00000+0  11146-3 0  9990
2 42758  43.0165  84.4557 0006969 121.9714  14.7236 15.09883441263631
CZ-2C R/B               
1 43521U 18054D   22085.51692030  .00002661  00000+0  14063-3 0  9997
2 43521  35.1522 149.0528 0079375  69.5870 291.3348 15.12503585207116
AEOLUS                  
1 43600U 18066A   22085.19194827  .00035425  00000+0  14132-3 0  9994
2 43600  96.7117  92.5151 0010393  93.9160 266.3301 15.86451357207929
SAOCOM 1A               
1 43641U 18076A   22085.50728574 -.00000506  00000+0 -57058-4 0  9996
2 43641  97.8880 273.3866 0001434  81.7432 278.4000 14.82147604187444
SAOCOM 1B               
1 46265U 20059A   22085.40341750 -.00000617  00000+0 -70916-4 0  9992
2 46265  97.8877 272.3547 0001258  75.0316 285.0873 14.82152794 84827
TIANHE                  
1 48274U 21035A   22085.54972222  .00021195  00000+0  22776-3 0  9990
2 48274  41.4713   2.1888 0007417 249.6381 106.8282 15.63218555 51842
